[{"OBJECT_NAME":"STARLINK-5895","OBJECT_ID":"2023-037BC","EPOCH":"2026-03-09T22:23:45.381696","MEAN_MOTION":15.07243555,"ECCENTRICITY":0.00049855,"INCLINATION":69.9972,"RA_OF_ASC_NODE":260.028,"ARG_OF_PERICENTER":264.4993,"MEAN_ANOMALY":95.5602,"EPHEMERIS_TYPE":0,"CLASSIFICATION_TYPE":"U","NORAD_CAT_ID":55964,"ELEMENT_SET_NO":999,"REV_AT_EPOCH":16460,"BSTAR":0.00072849946,"MEAN_MOTION_DOT":0.00010921,"MEAN_MOTION_DDOT":0},{"OBJECT_NAME":"STARLINK-35067","OBJECT_ID":"2025-200H","EPOCH":"2026-03-09T17:26:36.614688","MEAN_MOTION":15.05647209,"ECCENTRICITY":0.00012821,"INCLINATION":97.6024,"RA_OF_ASC_NODE":139.7902,"ARG_OF_PERICENTER":92.5355,"MEAN_ANOMALY":267.6019,"EPHEMERIS_TYPE":0,"CLASSIFICATION_TYPE":"U","NORAD_CAT_ID":65527,"ELEMENT_SET_NO":999,"REV_AT_EPOCH":2913,"BSTAR":0.00019351418,"MEAN_MOTION_DOT":2.732e-5,"MEAN_MOTION_DDOT":0}]
